{"fetched_at":"2026-03-29T02:12:04Z","count":15717,"tles":[{"name":"STARLINK-32186","line1":"1 60412U 24141Q   26087.60142138 -.00001860  00000+0 -50693-4 0  9996","line2":"2 60412  53.1603 154.9170 0001268  92.0144 268.1002 15.30192228 92415","category":"Starlink"}]}